[{"CCSDS_OMM_VERS":"3.0","COMMENT":"GENERATED VIA SPACE-TRACK.ORG API","CREATION_DATE":"2026-05-16T19:46:19","ORIGINATOR":"18 SPCS","OBJECT_NAME":"THOR ABLESTAR DEB","OBJECT_ID":"1963-038E","CENTER_NAME":"EARTH","REF_FRAME":"TEME","TIME_SYSTEM":"UTC","MEAN_ELEMENT_THEORY":"SGP4","EPOCH":"2026-05-16T12:43:43.942080","MEAN_MOTION":"13.55593675","ECCENTRICITY":"0.00189850","INCLINATION":"89.9836","RA_OF_ASC_NODE":"336.1726","ARG_OF_PERICENTER":"31.3464","MEAN_ANOMALY":"357.0621","EPHEMERIS_TYPE":"0","CLASSIFICATION_TYPE":"U","NORAD_CAT_ID":"745","ELEMENT_SET_NO":"999","REV_AT_EPOCH":"8714","BSTAR":"0.00024363000000","MEAN_MOTION_DOT":"0.00000179","MEAN_MOTION_DDOT":"0.0000000000000","SEMIMAJOR_AXIS":"7429.886","PERIOD":"106.227","APOAPSIS":"1065.857","PERIAPSIS":"1037.645","OBJECT_TYPE":"DEBRIS","RCS_SIZE":"SMALL","COUNTRY_CODE":"US","LAUNCH_DATE":"1963-09-28","SITE":"AFWTR","DECAY_DATE":null,"FILE":"5196663","GP_ID":"323492749","TLE_LINE0":"0 THOR ABLESTAR DEB","TLE_LINE1":"1   745U 63038E   26136.53036970  .00000179  00000-0  24363-3 0  9995","TLE_LINE2":"2   745  89.9836 336.1726 0018985  31.3464 357.0621 13.55593675 87144"},{"CCSDS_OMM_VERS":"3.0","COMMENT":"GENERATED VIA SPACE-TRACK.ORG API","CREATION_DATE":"2026-05-16T10:38:26","ORIGINATOR":"18 SPCS","OBJECT_NAME":"ELEKTRON 1","OBJECT_ID":"1964-006A","CENTER_NAME":"EARTH","REF_FRAME":"TEME","TIME_SYSTEM":"UTC","MEAN_ELEMENT_THEORY":"SGP4","EPOCH":"2026-05-16T05:18:06.734592","MEAN_MOTION":"9.10825467","ECCENTRICITY":"0.29908744","INCLINATION":"60.8809","RA_OF_ASC_NODE":"231.6024","ARG_OF_PERICENTER":"218.6581","MEAN_ANOMALY":"115.7395","EPHEMERIS_TYPE":"0","CLASSIFICATION_TYPE":"U","NORAD_CAT_ID":"746","ELEMENT_SET_NO":"999","REV_AT_EPOCH":"6433","BSTAR":"0.00015582760000","MEAN_MOTION_DOT":"0.00000504","MEAN_MOTION_DDOT":"0.0000000000000","SEMIMAJOR_AXIS":"9685.270","PERIOD":"158.098","APOAPSIS":"6203.878","PERIAPSIS":"410.392","OBJECT_TYPE":"PAYLOAD","RCS_SIZE":"LARGE","COUNTRY_CODE":"CIS","LAUNCH_DATE":"1964-01-30","SITE":"TTMTR","DECAY_DATE":null,"FILE":"5196540","GP_ID":"323424034","TLE_LINE0":"0 ELEKTRON 1","TLE_LINE1":"1 00746U 64006A   26136.22091128  .00000504  00000-0  15583-3 0  9990","TLE_LINE2":"2 00746  60.8809 231.6024 2990874 218.6581 115.7395  9.10825467 64337"},{"CCSDS_OMM_VERS":"3.0","COMMENT":"GENERATED VIA SPACE-TRACK.ORG API","CREATION_DATE":"2026-05-16T10:38:26","ORIGINATOR":"18 SPCS","OBJECT_NAME":"ELEKTRON 1 DEB","OBJECT_ID":"1964-006C","CENTER_NAME":"EARTH","REF_FRAME":"TEME","TIME_SYSTEM":"UTC","MEAN_ELEMENT_THEORY":"SGP4","EPOCH":"2026-05-16T06:29:07.852992","MEAN_MOTION":"12.50035353","ECCENTRICITY":"0.13899769","INCLINATION":"60.7470","RA_OF_ASC_NODE":"61.4084","ARG_OF_PERICENTER":"49.1143","MEAN_ANOMALY":"322.2142","EPHEMERIS_TYPE":"0","CLASSIFICATION_TYPE":"U","NORAD_CAT_ID":"750","ELEMENT_SET_NO":"999","REV_AT_EPOCH":"84266","BSTAR":"0.00241509950000","MEAN_MOTION_DOT":"0.00025817","MEAN_MOTION_DDOT":"0.0000000000000","SEMIMAJOR_AXIS":"7842.484","PERIOD":"115.197","APOAPSIS":"2554.436","PERIAPSIS":"374.262","OBJECT_TYPE":"DEBRIS","RCS_SIZE":"MEDIUM","COUNTRY_CODE":"CIS","LAUNCH_DATE":"1964-01-30","SITE":"TTMTR","DECAY_DATE":null,"FILE":"5196540","GP_ID":"323423535","TLE_LINE0":"0 ELEKTRON 1 DEB","TLE_LINE1":"1 00750U 64006C   26136.27022978  .00025817  00000-0  24151-2 0  9991","TLE_LINE2":"2 00750  60.7470  61.4084 1389977  49.1143 322.2142 12.50035353842666"},{"CCSDS_OMM_VERS":"3.0","COMMENT":"GENERATED VIA SPACE-TRACK.ORG API","CREATION_DATE":"2026-05-16T17:43:08","ORIGINATOR":"18 SPCS","OBJECT_NAME":"THOR ABLESTAR DEB","OBJECT_ID":"1963-049F","CENTER_NAME":"EARTH","REF_FRAME":"TEME","TIME_SYSTEM":"UTC","MEAN_ELEMENT_THEORY":"SGP4","EPOCH":"2026-05-16T14:19:44.217984","MEAN_MOTION":"13.54915832","ECCENTRICITY":"0.00251443","INCLINATION":"89.9177","RA_OF_ASC_NODE":"72.9958","ARG_OF_PERICENTER":"298.4499","MEAN_ANOMALY":"243.4398","EPHEMERIS_TYPE":"0","CLASSIFICATION_TYPE":"U","NORAD_CAT_ID":"753","ELEMENT_SET_NO":"999","REV_AT_EPOCH":"7627","BSTAR":"0.00033663730000","MEAN_MOTION_DOT":"0.00000241","MEAN_MOTION_DDOT":"0.0000000000000","SEMIMAJOR_AXIS":"7432.364","PERIOD":"106.280","APOAPSIS":"1072.917","PERIAPSIS":"1035.541","OBJECT_TYPE":"DEBRIS","RCS_SIZE":"SMALL","COUNTRY_CODE":"US","LAUNCH_DATE":"1963-12-05","SITE":"AFWTR","DECAY_DATE":null,"FILE":"5196581","GP_ID":"323457235","TLE_LINE0":"0 THOR ABLESTAR DEB","TLE_LINE1":"1 00753U 63049F   26136.59703956  .00000241  00000-0  33664-3 0  9991","TLE_LINE2":"2 00753  89.9177  72.9958 0025144 298.4499 243.4398 13.54915832 76275"},{"CCSDS_OMM_VERS":"3.0","COMMENT":"GENERATED VIA SPACE-TRACK.ORG API","CREATION_DATE":"2026-05-16T17:43:08","ORIGINATOR":"18 SPCS","OBJECT_NAME":"OPS 4412 (TRANSIT 9)","OBJECT_ID":"1964-026A","CENTER_NAME":"EARTH","REF_FRAME":"TEME","TIME_SYSTEM":"UTC","MEAN_ELEMENT_THEORY":"SGP4","EPOCH":"2026-05-16T14:13:38.113536","MEAN_MOTION":"14.17053859","ECCENTRICITY":"0.00495463","INCLINATION":"90.4550","RA_OF_ASC_NODE":"186.3634","ARG_OF_PERICENTER":"124.4446","MEAN_ANOMALY":"236.1440","EPHEMERIS_TYPE":"0","CLASSIFICATION_TYPE":"U","NORAD_CAT_ID":"801","ELEMENT_SET_NO":"999","REV_AT_EPOCH":"18167","BSTAR":"0.00013569236000","MEAN_MOTION_DOT":"0.00000286","MEAN_MOTION_DDOT":"0.0000000000000","SEMIMAJOR_AXIS":"7213.471","PERIOD":"101.619","APOAPSIS":"871.076","PERIAPSIS":"799.596","OBJECT_TYPE":"PAYLOAD","RCS_SIZE":"LARGE","COUNTRY_CODE":"US","LAUNCH_DATE":"1964-06-04","SITE":"AFWTR","DECAY_DATE":null,"FILE":"5196581","GP_ID":"323457736","TLE_LINE0":"0 OPS 4412 (TRANSIT 9)","TLE_LINE1":"1 00801U 64026A   26136.59280224  .00000286  00000-0  13569-3 0  9990","TLE_LINE2":"2 00801  90.4550 186.3634 0049546 124.4446 236.1440 14.17053859181674"},{"CCSDS_OMM_VERS":"3.0","COMMENT":"GENERATED VIA SPACE-TRACK.ORG API","CREATION_DATE":"2026-05-16T19:46:19","ORIGINATOR":"18 SPCS","OBJECT_NAME":"SCOUT X-4 DEB","OBJECT_ID":"1964-026B","CENTER_NAME":"EARTH","REF_FRAME":"TEME","TIME_SYSTEM":"UTC","MEAN_ELEMENT_THEORY":"SGP4","EPOCH":"2026-05-16T11:24:17.318880","MEAN_MOTION":"14.35944419","ECCENTRICITY":"0.00270230","INCLINATION":"89.8521","RA_OF_ASC_NODE":"329.4130","ARG_OF_PERICENTER":"295.4341","MEAN_ANOMALY":"64.4062","EPHEMERIS_TYPE":"0","CLASSIFICATION_TYPE":"U","NORAD_CAT_ID":"805","ELEMENT_SET_NO":"999","REV_AT_EPOCH":"18548","BSTAR":"0.00033071000000","MEAN_MOTION_DOT":"0.00000975","MEAN_MOTION_DDOT":"0.0000000000000","SEMIMAJOR_AXIS":"7150.067","PERIOD":"100.282","APOAPSIS":"791.253","PERIAPSIS":"752.610","OBJECT_TYPE":"DEBRIS","RCS_SIZE":"SMALL","COUNTRY_CODE":"US","LAUNCH_DATE":"1964-06-04","SITE":"AFWTR","DECAY_DATE":null,"FILE":"5196664","GP_ID":"323492274","TLE_LINE0":"0 SCOUT X-4 DEB","TLE_LINE1":"1   805U 64026B   26136.47520045  .00000975  00000-0  33071-3 0  9994","TLE_LINE2":"2   805  89.8521 329.4130 0027023 295.4341  64.4062 14.35944419185484"},{"CCSDS_OMM_VERS":"3.0","COMMENT":"GENERATED VIA SPACE-TRACK.ORG API","CREATION_DATE":"2026-05-16T17:43:08","ORIGINATOR":"18 SPCS","OBJECT_NAME":"SCOUT X-4 R\/B","OBJECT_ID":"1964-026D","CENTER_NAME":"EARTH","REF_FRAME":"TEME","TIME_SYSTEM":"UTC","MEAN_ELEMENT_THEORY":"SGP4","EPOCH":"2026-05-16T13:31:53.052672","MEAN_MOTION":"14.10781301","ECCENTRICITY":"0.00407814","INCLINATION":"90.4436","RA_OF_ASC_NODE":"176.2840","ARG_OF_PERICENTER":"161.4356","MEAN_ANOMALY":"198.8328","EPHEMERIS_TYPE":"0","CLASSIFICATION_TYPE":"U","NORAD_CAT_ID":"809","ELEMENT_SET_NO":"999","REV_AT_EPOCH":"17368","BSTAR":"0.00010780329000","MEAN_MOTION_DOT":"0.00000204","MEAN_MOTION_DDOT":"0.0000000000000","SEMIMAJOR_AXIS":"7234.836","PERIOD":"102.071","APOAPSIS":"886.206","PERIAPSIS":"827.197","OBJECT_TYPE":"ROCKET BODY","RCS_SIZE":"MEDIUM","COUNTRY_CODE":"US","LAUNCH_DATE":"1964-06-04","SITE":"AFWTR","DECAY_DATE":null,"FILE":"5196581","GP_ID":"323457737","TLE_LINE0":"0 SCOUT X-4 R\/B","TLE_LINE1":"1 00809U 64026D   26136.56380848  .00000204  00000-0  10780-3 0  9990","TLE_LINE2":"2 00809  90.4436 176.2840 0040781 161.4356 198.8328 14.10781301173689"},{"CCSDS_OMM_VERS":"3.0","COMMENT":"GENERATED VIA SPACE-TRACK.ORG API","CREATION_DATE":"2026-05-16T17:43:08","ORIGINATOR":"18 SPCS","OBJECT_NAME":"OPS 4467 A","OBJECT_ID":"1964-031A","CENTER_NAME":"EARTH","REF_FRAME":"TEME","TIME_SYSTEM":"UTC","MEAN_ELEMENT_THEORY":"SGP4","EPOCH":"2026-05-16T15:27:18.512064","MEAN_MOTION":"14.24589478","ECCENTRICITY":"0.00057094","INCLINATION":"99.8170","RA_OF_ASC_NODE":"288.2810","ARG_OF_PERICENTER":"167.4556","MEAN_ANOMALY":"192.6762","EPHEMERIS_TYPE":"0","CLASSIFICATION_TYPE":"U","NORAD_CAT_ID":"812","ELEMENT_SET_NO":"999","REV_AT_EPOCH":"21180","BSTAR":"0.00003020488700","MEAN_MOTION_DOT":"0.00000016","MEAN_MOTION_DDOT":"0.0000000000000","SEMIMAJOR_AXIS":"7188.010","PERIOD":"101.082","APOAPSIS":"813.979","PERIAPSIS":"805.771","OBJECT_TYPE":"PAYLOAD","RCS_SIZE":"MEDIUM","COUNTRY_CODE":"US","LAUNCH_DATE":"1964-06-18","SITE":"AFWTR","DECAY_DATE":null,"FILE":"5196581","GP_ID":"323457237","TLE_LINE0":"0 OPS 4467 A","TLE_LINE1":"1 00812U 64031A   26136.64396426  .00000016  00000-0  30205-4 0  9994","TLE_LINE2":"2 00812  99.8170 288.2810 0005709 167.4556 192.6762 14.24589478211808"}]